{"type": "FeatureCollection", "features": [ {"type": "Feature", "properties": {"norad_id": 34077, "name": "IRIDIUM 33 DEB", "group": "iridium-33-debris", "lat": 38.2394482371763, "lon": -127.18540517961944, "alt_km": 673.3894712298234, "timestamp": "2025-12-03T06:58:43.626527+00:00", "meta": {"OBJECT_NAME": "IRIDIUM 33 DEB", "OBJECT_ID": "1997-051CL", "EPOCH": "2025-12-02T17:45:19.641024", "MEAN_MOTION": 14.64560219, "ECCENTRICITY": 0.0011006, "INCLINATION": 86.3871, "RA_OF_ASC_NODE": 55.911, "ARG_OF_PERICENTER": 70.8533, "MEAN_ANOMALY": 47.529, "EPHEMERIS_TYPE": 0, "CLASSIFICATION_TYPE": "U", "NORAD_CAT_ID": 34077, "ELEMENT_SET_NO": 999, "REV_AT_EPOCH": 88186, "BSTAR": 0.0021172, "MEAN_MOTION_DOT": 0.0001127, "MEAN_MOTION_DDOT": 0}, "tle": {"line1": "1 34077U 97051CL  25336.73981066  .00011270  00000+0  21172-2 0  9997", "line2": "2 34077  86.3871  55.9110 0011006  70.8533  47.5290 14.64560219881867"}}, "geometry": {"type": "Point", "coordinates": [-127.18540517961944, 38.2394482371763]}}, {"type": "Feature", "properties": {"norad_id": 34079, "name": "IRIDIUM 33 DEB", "group": "iridium-33-debris", "lat": -40.97314282670092, "lon": -163.88867487832442, "alt_km": 630.8717487291833, "timestamp": "2025-12-03T06:58:43.626538+00:00", "meta": {"OBJECT_NAME": "IRIDIUM 33 DEB", "OBJECT_ID": "1997-051CN", "EPOCH": "2025-12-02T20:49:31.052928", "MEAN_MOTION": 14.83114915, "ECCENTRICITY": 0.0006779, "INCLINATION": 86.3787, "RA_OF_ASC_NODE": 13.1506, "ARG_OF_PERICENTER": 37.8553, "MEAN_ANOMALY": 85.7875, "EPHEMERIS_TYPE": 0, "CLASSIFICATION_TYPE": "U", "NORAD_CAT_ID": 34079, "ELEMENT_SET_NO": 999, "REV_AT_EPOCH": 88831, "BSTAR": 0.0020737, "MEAN_MOTION_DOT": 0.00016948, "MEAN_MOTION_DDOT": 0}, "tle": {"line1": "1 34079U 97051CN  25336.86772052  .00016948  00000+0  20737-2 0  9999", "line2": "2 34079  86.3787  13.1506 0006779  37.8553  85.7875 14.83114915888315"}}, "geometry": {"type": "Point", "coordinates": [-163.88867487832442, -40.97314282670092]}}, {"type": "Feature", "properties": {"norad_id": 34088, "name": "IRIDIUM 33 DEB", "group": "iridium-33-debris", "lat": 50.87252706297696, "lon": 39.51912543145546, "alt_km": 594.8085335235519, "timestamp": "2025-12-03T06:58:43.626548+00:00", "meta": {"OBJECT_NAME": "IRIDIUM 33 DEB", "OBJECT_ID": "1997-051CX", "EPOCH": "2025-12-02T16:49:00.759072", "MEAN_MOTION": 14.90581573, "ECCENTRICITY": 0.0005128, "INCLINATION": 86.3862, "RA_OF_ASC_NODE": 35.3339, "ARG_OF_PERICENTER": 213.7318, "MEAN_ANOMALY": 273.0169, "EPHEMERIS_TYPE": 0, "CLASSIFICATION_TYPE": "U", "NORAD_CAT_ID": 34088, "ELEMENT_SET_NO": 999, "REV_AT_EPOCH": 88592, "BSTAR": 0.0032335, "MEAN_MOTION_DOT": 0.00031763, "MEAN_MOTION_DDOT": 0}, "tle": {"line1": "1 34088U 97051CX  25336.70070323  .00031763  00000+0  32335-2 0  9993", "line2": "2 34088  86.3862  35.3339 0005128 213.7318 273.0169 14.90581573885928"}}, "geometry": {"type": "Point", "coordinates": [39.51912543145546, 50.87252706297696]}}, {"type": "Feature", "properties": {"norad_id": 34091, "name": "IRIDIUM 33 DEB", "group": "iridium-33-debris", "lat": -28.29040199537598, "lon": -106.86992484443473, "alt_km": 644.5346444479501, "timestamp": "2025-12-03T06:58:43.626559+00:00", "meta": {"OBJECT_NAME": "IRIDIUM 33 DEB", "OBJECT_ID": "1997-051DA", "EPOCH": "2025-12-02T05:42:26.763264", "MEAN_MOTION": 14.80503091, "ECCENTRICITY": 0.0032917, "INCLINATION": 86.342, "RA_OF_ASC_NODE": 71.638, "ARG_OF_PERICENTER": 331.035, "MEAN_ANOMALY": 28.9043, "EPHEMERIS_TYPE": 0, "CLASSIFICATION_TYPE": "U", "NORAD_CAT_ID": 34091, "ELEMENT_SET_NO": 999, "REV_AT_EPOCH": 87711, "BSTAR": 0.0059169, "MEAN_MOTION_DOT": 0.00045975, "MEAN_MOTION_DDOT": 0}, "tle": {"line1": "1 34091U 97051DA  25336.23780976  .00045975  00000+0  59169-2 0  9991", "line2": "2 34091  86.3420  71.6380 0032917 331.0350  28.9043 14.80503091877115"}}, "geometry": {"type": "Point", "coordinates": [-106.86992484443473, -28.29040199537598]}}, {"type": "Feature", "properties": {"norad_id": 34097, "name": "IRIDIUM 33 DEB", "group": "iridium-33-debris", "lat": -56.833948024014774, "lon": -168.58595828264404, "alt_km": 837.9541039976984, "timestamp": "2025-12-03T06:58:43.626569+00:00", "meta": {"OBJECT_NAME": "IRIDIUM 33 DEB", "OBJECT_ID": "1997-051DG", "EPOCH": "2025-12-02T19:50:04.615584", "MEAN_MOTION": 14.34654028, "ECCENTRICITY": 0.0083724, "INCLINATION": 86.2009, "RA_OF_ASC_NODE": 5.7833, "ARG_OF_PERICENTER": 34.3438, "MEAN_ANOMALY": 326.313, "EPHEMERIS_TYPE": 0, "CLASSIFICATION_TYPE": "U", "NORAD_CAT_ID": 34097, "ELEMENT_SET_NO": 999, "REV_AT_EPOCH": 86977, "BSTAR": 0.0016604, "MEAN_MOTION_DOT": 4.904e-05, "MEAN_MOTION_DDOT": 0}, "tle": {"line1": "1 34097U 97051DG  25336.82644231  .00004904  00000+0  16604-2 0  9999", "line2": "2 34097  86.2009   5.7833 0083724  34.3438 326.3130 14.34654028869777"}}, "geometry": {"type": "Point", "coordinates": [-168.58595828264404, -56.833948024014774]}}, {"type": "Feature", "properties": {"norad_id": 34145, "name": "IRIDIUM 33 DEB", "group": "iridium-33-debris", "lat": -71.45779440266706, "lon": 168.12935937266818, "alt_km": 782.7969044359343, "timestamp": "2025-12-03T06:58:43.626579+00:00", "meta": {"OBJECT_NAME": "IRIDIUM 33 DEB", "OBJECT_ID": "1997-051DY", "EPOCH": "2025-12-02T18:09:46.439136", "MEAN_MOTION": 14.4217642, "ECCENTRICITY": 0.0055248, "INCLINATION": 86.2115, "RA_OF_ASC_NODE": 336.9733, "ARG_OF_PERICENTER": 125.5687, "MEAN_ANOMALY": 235.0681, "EPHEMERIS_TYPE": 0, "CLASSIFICATION_TYPE": "U", "NORAD_CAT_ID": 34145, "ELEMENT_SET_NO": 999, "REV_AT_EPOCH": 87494, "BSTAR": 0.0012883, "MEAN_MOTION_DOT": 4.339e-05, "MEAN_MOTION_DDOT": 0}, "tle": {"line1": "1 34145U 97051DY  25336.75678749  .00004339  00000+0  12883-2 0  9993", "line2": "2 34145  86.2115 336.9733 0055248 125.5687 235.0681 14.42176420874942"}}, "geometry": {"type": "Point", "coordinates": [168.12935937266818, -71.45779440266706]}}, {"type": "Feature", "properties": {"norad_id": 34146, "name": "IRIDIUM 33 DEB", "group": "iridium-33-debris", "lat": 19.432545578593338, "lon": -4.71097278987194, "alt_km": 739.2051997534336, "timestamp": "2025-12-03T06:58:43.626589+00:00", "meta": {"OBJECT_NAME": "IRIDIUM 33 DEB", "OBJECT_ID": "1997-051DZ", "EPOCH": "2025-12-02T13:15:13.588704", "MEAN_MOTION": 14.48931558, "ECCENTRICITY": 0.00249634, "INCLINATION": 86.2839, "RA_OF_ASC_NODE": 354.3012, "ARG_OF_PERICENTER": 258.2164, "MEAN_ANOMALY": 231.2371, "EPHEMERIS_TYPE": 0, "CLASSIFICATION_TYPE": "U", "NORAD_CAT_ID": 34146, "ELEMENT_SET_NO": 999, "REV_AT_EPOCH": 87959, "BSTAR": 0.0012342017, "MEAN_MOTION_DOT": 4.71e-05, "MEAN_MOTION_DDOT": 0}, "tle": {"line1": "1 34146U 97051DZ  25336.55224061  .00004710  00000+0  12342-2 0  9999", "line2": "2 34146  86.2839 354.3012 0024963 258.2164 231.2371 14.48931558879591"}}, "geometry": {"type": "Point", "coordinates": [-4.71097278987194, 19.432545578593338]}}, {"type": "Feature", "properties": {"norad_id": 34159, "name": "IRIDIUM 33 DEB", "group": "iridium-33-debris", "lat": 85.9194792802863, "lon": 168.84098540244085, "alt_km": 768.500428943652, "timestamp": "2025-12-03T06:58:43.626599+00:00", "meta": {"OBJECT_NAME": "IRIDIUM 33 DEB", "OBJECT_ID": "1997-051EN", "EPOCH": "2025-12-02T17:11:51.335232", "MEAN_MOTION": 14.38452068, "ECCENTRICITY": 0.002654, "INCLINATION": 86.3516, "RA_OF_ASC_NODE": 52.5142, "ARG_OF_PERICENTER": 322.9062, "MEAN_ANOMALY": 37.0301, "EPHEMERIS_TYPE": 0, "CLASSIFICATION_TYPE": "U", "NORAD_CAT_ID": 34159, "ELEMENT_SET_NO": 999, "REV_AT_EPOCH": 87815, "BSTAR": 0.00053465, "MEAN_MOTION_DOT": 1.657e-05, "MEAN_MOTION_DDOT": 0}, "tle": {"line1": "1 34159U 97051EN  25336.71656638  .00001657  00000+0  53465-3 0  9999", "line2": "2 34159  86.3516  52.5142 0026540 322.9062  37.0301 14.38452068878157"}}, "geometry": {"type": "Point", "coordinates": [168.84098540244085, 85.9194792802863]}}, {"type": "Feature", "properties": {"norad_id": 34350, "name": "IRIDIUM 33 DEB", "group": "iridium-33-debris", "lat": -66.20257304611006, "lon": -164.71998264995221, "alt_km": 745.8525522838227, "timestamp": "2025-12-03T06:58:43.626609+00:00", "meta": {"OBJECT_NAME": "IRIDIUM 33 DEB", "OBJECT_ID": "1997-051ES", "EPOCH": "2025-12-02T20:40:44.824224", "MEAN_MOTION": 14.45350239, "ECCENTRICITY": 0.0021812, "INCLINATION": 86.3282, "RA_OF_ASC_NODE": 7.0934, "ARG_OF_PERICENTER": 166.4146, "MEAN_ANOMALY": 8.1872, "EPHEMERIS_TYPE": 0, "CLASSIFICATION_TYPE": "U", "NORAD_CAT_ID": 34350, "ELEMENT_SET_NO": 999, "REV_AT_EPOCH": 88150, "BSTAR": 0.00040994, "MEAN_MOTION_DOT": 1.464e-05, "MEAN_MOTION_DDOT": 0}, "tle": {"line1": "1 34350U 97051ES  25336.86162991  .00001464  00000+0  40994-3 0  9991", "line2": "2 34350  86.3282   7.0934 0021812 166.4146   8.1872 14.45350239881505"}}, "geometry": {"type": "Point", "coordinates": [-164.71998264995221, -66.20257304611006]}}, {"type": "Feature", "properties": {"norad_id": 34366, "name": "IRIDIUM 33 DEB", "group": "iridium-33-debris", "lat": -77.90184824326208, "lon": 36.19884106437278, "alt_km": 725.9601730200538, "timestamp": "2025-12-03T06:58:43.626619+00:00", "meta": {"OBJECT_NAME": "IRIDIUM 33 DEB", "OBJECT_ID": "1997-051FJ", "EPOCH": "2025-12-02T17:03:14.468832", "MEAN_MOTION": 14.53901714, "ECCENTRICITY": 0.0021668, "INCLINATION": 86.3709, "RA_OF_ASC_NODE": 53.6739, "ARG_OF_PERICENTER": 171.9612, "MEAN_ANOMALY": 314.5418, "EPHEMERIS_TYPE": 0, "CLASSIFICATION_TYPE": "U", "NORAD_CAT_ID": 34366, "ELEMENT_SET_NO": 999, "REV_AT_EPOCH": 88036, "BSTAR": 0.0016349, "MEAN_MOTION_DOT": 6.918e-05, "MEAN_MOTION_DDOT": 0}, "tle": {"line1": "1 34366U 97051FJ  25336.71058413  .00006918  00000+0  16349-2 0  9990", "line2": "2 34366  86.3709  53.6739 0021668 171.9612 314.5418 14.53901714880366"}}, "geometry": {"type": "Point", "coordinates": [36.19884106437278, -77.90184824326208]}}]}